ISS (ZARYA)             
1 25544U 98067A   23258.85115965  .00017774  00000+0  32632-3 0  9994
2 25544  51.6411 239.4205 0005742  22.4437  51.1220 15.49314774415854
ISS DEB                 
1 47853U 98067RZ  23258.21465531  .00049410  00000+0  34257-3 0  9995
2 47853  51.6341 198.6206 0001400 115.2919 244.8225 15.73953751142969
CSS (TIANHE)            
1 48274U 21035A   23258.65874977  .00030231  00000+0  33467-3 0  9993
2 48274  41.4745 325.5780 0008588  22.9851 337.1372 15.62290918135972
ISS (NAUKA)             
1 49044U 21066A   23258.41510310  .00017764  00000+0  32632-3 0  9994
2 49044  51.6411 241.5794 0005745  20.8373 139.0145 15.49298881415780
FREGAT DEB              
1 49271U 11037PF  23258.44040948  .00028655  00000+0  93630-1 0  9995
2 49271  51.6310  51.3024 0915703 261.4190  88.1983 12.05379537101780
CSS (WENTIAN)           
1 53239U 22085A   23258.46697371  .00029249  00000+0  32414-3 0  9994
2 53239  41.4746 326.7477 0008583  21.4798 338.6400 15.62277228135949
CSS (MENGTIAN)          
1 54216U 22143A   23258.46697371  .00029249  00000+0  32414-3 0  9995
2 54216  41.4746 326.7477 0008583  21.4798 338.6400 15.62277228135945
SPORT                   
1 55129U 98067UW  23258.27069391  .00303388  45548-4  92610-3 0  9995
2 55129  51.6222 212.2504 0007004 100.0444 260.1353 15.91421277 40768
ISS DEB (SPX-26 IPA FSE)
1 55448U 98067VB  23258.29890484  .00085723  00000+0  67959-3 0  9993
2 55448  51.6325 225.3727 0008033  82.6389 277.5522 15.70522659 35378
SOYUZ-MS 23             
1 55688U 23024A   23258.41510310  .00017764  00000+0  32632-3 0  9991
2 55688  51.6411 241.5794 0005745  20.8373 139.0145 15.49298881415781
ARKSAT 1                
1 56311U 98067VC  23258.33928237  .00179674  00000+0  12313-2 0  9998
2 56311  51.6324 230.8905 0009237  72.0237 288.1768 15.73601327 22478
AURORASAT               
1 56312U 98067VD  23258.21972664  .00337783  00000+0  16062-2 0  9991
2 56312  51.6274 229.3049 0009348  75.3977 284.8061 15.81355702 22511
EX-ALTA-2               
1 56313U 98067VE  23258.52307082  .00157087  00000+0  10609-2 0  9990
2 56313  51.6295 229.8456 0009113  71.8825 288.3166 15.74015788 22520
LIGHTCUBE               
1 56314U 98067VF  23258.32903478  .00284745  00000+0  14887-2 0  9994
2 56314  51.6279 229.2874 0009469  68.6799 291.5212 15.79424460 22545
NEUDOSE                 
1 56315U 98067VG  23258.52564169  .00096178  00000+0  89535-3 0  9991
2 56315  51.6327 232.8874 0009045  61.6116 298.5791 15.66544459 22463
YUKONSAT                
1 56316U 98067VH  23258.64776917  .00124392  00000+0  98558-3 0  9996
2 56316  51.6317 230.6967 0009353  62.9193 297.2757 15.70359323 22527
ISS DEB                 
1 56434U 98067VJ  23258.65958960  .00082293  00000+0  83750-3 0  9999
2 56434  51.6351 233.8053 0008984  71.4445 288.7526 15.64379218 21033
