[{"OBJECT_NAME":"ISS (ZARYA)","OBJECT_ID":"1998-067A","EPOCH":"2023-09-15T20:25:40.193760","MEAN_MOTION":15.49314774,"ECCENTRICITY":0.0005742,"INCLINATION":51.6411,"RA_OF_ASC_NODE":239.4205,"ARG_OF_PERICENTER":22.4437,"MEAN_ANOMALY":51.122,"EPHEMERIS_TYPE":0,"CLASSIFICATION_TYPE":"U","NORAD_CAT_ID":25544,"ELEMENT_SET_NO":999,"REV_AT_EPOCH":41585,"BSTAR":0.00032632,"MEAN_MOTION_DOT":0.00017774,"MEAN_MOTION_DDOT":0},{"OBJECT_NAME":"ISS DEB","OBJECT_ID":"1998-067RZ","EPOCH":"2023-09-15T05:09:06.218784","MEAN_MOTION":15.73953751,"ECCENTRICITY":0.00014,"INCLINATION":51.6341,"RA_OF_ASC_NODE":198.6206,"ARG_OF_PERICENTER":115.2919,"MEAN_ANOMALY":244.8225,"EPHEMERIS_TYPE":0,"CLASSIFICATION_TYPE":"U","NORAD_CAT_ID":47853,"ELEMENT_SET_NO":999,"REV_AT_EPOCH":14296,"BSTAR":0.00034257,"MEAN_MOTION_DOT":0.0004941,"MEAN_MOTION_DDOT":0},{"OBJECT_NAME":"CSS (TIANHE)","OBJECT_ID":"2021-035A","EPOCH":"2023-09-15T15:48:35.980128","MEAN_MOTION":15.62290918,"ECCENTRICITY":0.0008588,"INCLINATION":41.4745,"RA_OF_ASC_NODE":325.578,"ARG_OF_PERICENTER":22.9851,"MEAN_ANOMALY":337.1372,"EPHEMERIS_TYPE":0,"CLASSIFICATION_TYPE":"U","NORAD_CAT_ID":48274,"ELEMENT_SET_NO":999,"REV_AT_EPOCH":13597,"BSTAR":0.00033467,"MEAN_MOTION_DOT":0.00030231,"MEAN_MOTION_DDOT":0},{"OBJECT_NAME":"ISS (NAUKA)","OBJECT_ID":"2021-066A","EPOCH":"2023-09-15T09:57:44.907840","MEAN_MOTION":15.49298881,"ECCENTRICITY":0.0005745,"INCLINATION":51.6411,"RA_OF_ASC_NODE":241.5794,"ARG_OF_PERICENTER":20.8373,"MEAN_ANOMALY":139.0145,"EPHEMERIS_TYPE":0,"CLASSIFICATION_TYPE":"U","NORAD_CAT_ID":49044,"ELEMENT_SET_NO":999,"REV_AT_EPOCH":41578,"BSTAR":0.00032632,"MEAN_MOTION_DOT":0.00017764,"MEAN_MOTION_DDOT":0},{"OBJECT_NAME":"FREGAT DEB","OBJECT_ID":"2011-037PF","EPOCH":"2023-09-15T10:34:11.379072","MEAN_MOTION":12.05379537,"ECCENTRICITY":0.0915703,"INCLINATION":51.631,"RA_OF_ASC_NODE":51.3024,"ARG_OF_PERICENTER":261.419,"MEAN_ANOMALY":88.1983,"EPHEMERIS_TYPE":0,"CLASSIFICATION_TYPE":"U","NORAD_CAT_ID":49271,"ELEMENT_SET_NO":999,"REV_AT_EPOCH":10178,"BSTAR":0.09363,"MEAN_MOTION_DOT":0.00028655,"MEAN_MOTION_DDOT":0},{"OBJECT_NAME":"CSS (WENTIAN)","OBJECT_ID":"2022-085A","EPOCH":"2023-09-15T11:12:26.528544","MEAN_MOTION":15.62277228,"ECCENTRICITY":0.0008583,"INCLINATION":41.4746,"RA_OF_ASC_NODE":326.7477,"ARG_OF_PERICENTER":21.4798,"MEAN_ANOMALY":338.64,"EPHEMERIS_TYPE":0,"CLASSIFICATION_TYPE":"U","NORAD_CAT_ID":53239,"ELEMENT_SET_NO":999,"REV_AT_EPOCH":13594,"BSTAR":0.00032414,"MEAN_MOTION_DOT":0.00029249,"MEAN_MOTION_DDOT":0},{"OBJECT_NAME":"CSS (MENGTIAN)","OBJECT_ID":"2022-143A","EPOCH":"2023-09-15T11:12:26.528544","MEAN_MOTION":15.62277228,"ECCENTRICITY":0.0008583,"INCLINATION":41.4746,"RA_OF_ASC_NODE":326.7477,"ARG_OF_PERICENTER":21.4798,"MEAN_ANOMALY":338.64,"EPHEMERIS_TYPE":0,"CLASSIFICATION_TYPE":"U","NORAD_CAT_ID":54216,"ELEMENT_SET_NO":999,"REV_AT_EPOCH":13594,"BSTAR":0.00032414,"MEAN_MOTION_DOT":0.00029249,"MEAN_MOTION_DDOT":0},{"OBJECT_NAME":"SPORT","OBJECT_ID":"1998-067UW","EPOCH":"2023-09-15T06:29:47.953824","MEAN_MOTION":15.91421277,"ECCENTRICITY":0.0007004,"INCLINATION":51.6222,"RA_OF_ASC_NODE":212.2504,"ARG_OF_PERICENTER":100.0444,"MEAN_ANOMALY":260.1353,"EPHEMERIS_TYPE":0,"CLASSIFICATION_TYPE":"U","NORAD_CAT_ID":55129,"ELEMENT_SET_NO":999,"REV_AT_EPOCH":4076,"BSTAR":0.0009261,"MEAN_MOTION_DOT":0.00303388,"MEAN_MOTION_DDOT":4.5548e-5},{"OBJECT_NAME":"ISS DEB (SPX-26 IPA FSE)","OBJECT_ID":"1998-067VB","EPOCH":"2023-09-15T07:10:25.378176","MEAN_MOTION":15.70522659,"ECCENTRICITY":0.0008033,"INCLINATION":51.6325,"RA_OF_ASC_NODE":225.3727,"ARG_OF_PERICENTER":82.6389,"MEAN_ANOMALY":277.5522,"EPHEMERIS_TYPE":0,"CLASSIFICATION_TYPE":"U","NORAD_CAT_ID":55448,"ELEMENT_SET_NO":999,"REV_AT_EPOCH":3537,"BSTAR":0.00067959,"MEAN_MOTION_DOT":0.00085723,"MEAN_MOTION_DDOT":0},{"OBJECT_NAME":"SOYUZ-MS 23","OBJECT_ID":"2023-024A","EPOCH":"2023-09-15T09:57:44.907840","MEAN_MOTION":15.49298881,"ECCENTRICITY":0.0005745,"INCLINATION":51.6411,"RA_OF_ASC_NODE":241.5794,"ARG_OF_PERICENTER":20.8373,"MEAN_ANOMALY":139.0145,"EPHEMERIS_TYPE":0,"CLASSIFICATION_TYPE":"U","NORAD_CAT_ID":55688,"ELEMENT_SET_NO":999,"REV_AT_EPOCH":41578,"BSTAR":0.00032632,"MEAN_MOTION_DOT":0.00017764,"MEAN_MOTION_DDOT":0},{"OBJECT_NAME":"ARKSAT 1","OBJECT_ID":"1998-067VC","EPOCH":"2023-09-15T08:08:33.996768","MEAN_MOTION":15.73601327,"ECCENTRICITY":0.0009237,"INCLINATION":51.6324,"RA_OF_ASC_NODE":230.8905,"ARG_OF_PERICENTER":72.0237,"MEAN_ANOMALY":288.1768,"EPHEMERIS_TYPE":0,"CLASSIFICATION_TYPE":"U","NORAD_CAT_ID":56311,"ELEMENT_SET_NO":999,"REV_AT_EPOCH":2247,"BSTAR":0.0012313,"MEAN_MOTION_DOT":0.00179674,"MEAN_MOTION_DDOT":0},{"OBJECT_NAME":"AURORASAT","OBJECT_ID":"1998-067VD","EPOCH":"2023-09-15T05:16:24.381696","MEAN_MOTION":15.81355702,"ECCENTRICITY":0.0009348,"INCLINATION":51.6274,"RA_OF_ASC_NODE":229.3049,"ARG_OF_PERICENTER":75.3977,"MEAN_ANOMALY":284.8061,"EPHEMERIS_TYPE":0,"CLASSIFICATION_TYPE":"U","NORAD_CAT_ID":56312,"ELEMENT_SET_NO":999,"REV_AT_EPOCH":2251,"BSTAR":0.0016062,"MEAN_MOTION_DOT":0.00337783,"MEAN_MOTION_DDOT":0},{"OBJECT_NAME":"EX-ALTA-2","OBJECT_ID":"1998-067VE","EPOCH":"2023-09-15T12:33:13.318848","MEAN_MOTION":15.74015788,"ECCENTRICITY":0.0009113,"INCLINATION":51.6295,"RA_OF_ASC_NODE":229.8456,"ARG_OF_PERICENTER":71.8825,"MEAN_ANOMALY":288.3166,"EPHEMERIS_TYPE":0,"CLASSIFICATION_TYPE":"U","NORAD_CAT_ID":56313,"ELEMENT_SET_NO":999,"REV_AT_EPOCH":2252,"BSTAR":0.0010609,"MEAN_MOTION_DOT":0.00157087,"MEAN_MOTION_DDOT":0},{"OBJECT_NAME":"LIGHTCUBE","OBJECT_ID":"1998-067VF","EPOCH":"2023-09-15T07:53:48.604992","MEAN_MOTION":15.7942446,"ECCENTRICITY":0.0009469,"INCLINATION":51.6279,"RA_OF_ASC_NODE":229.2874,"ARG_OF_PERICENTER":68.6799,"MEAN_ANOMALY":291.5212,"EPHEMERIS_TYPE":0,"CLASSIFICATION_TYPE":"U","NORAD_CAT_ID":56314,"ELEMENT_SET_NO":999,"REV_AT_EPOCH":2254,"BSTAR":0.0014887,"MEAN_MOTION_DOT":0.00284745,"MEAN_MOTION_DDOT":0},{"OBJECT_NAME":"NEUDOSE","OBJECT_ID":"1998-067VG","EPOCH":"2023-09-15T12:36:55.442016","MEAN_MOTION":15.66544459,"ECCENTRICITY":0.0009045,"INCLINATION":51.6327,"RA_OF_ASC_NODE":232.8874,"ARG_OF_PERICENTER":61.6116,"MEAN_ANOMALY":298.5791,"EPHEMERIS_TYPE":0,"CLASSIFICATION_TYPE":"U","NORAD_CAT_ID":56315,"ELEMENT_SET_NO":999,"REV_AT_EPOCH":2246,"BSTAR":0.00089535,"MEAN_MOTION_DOT":0.00096178,"MEAN_MOTION_DDOT":0},{"OBJECT_NAME":"YUKONSAT","OBJECT_ID":"1998-067VH","EPOCH":"2023-09-15T15:32:47.256288","MEAN_MOTION":15.70359323,"ECCENTRICITY":0.0009353,"INCLINATION":51.6317,"RA_OF_ASC_NODE":230.6967,"ARG_OF_PERICENTER":62.9193,"MEAN_ANOMALY":297.2757,"EPHEMERIS_TYPE":0,"CLASSIFICATION_TYPE":"U","NORAD_CAT_ID":56316,"ELEMENT_SET_NO":999,"REV_AT_EPOCH":2252,"BSTAR":0.00098558,"MEAN_MOTION_DOT":0.00124392,"MEAN_MOTION_DDOT":0},{"OBJECT_NAME":"ISS DEB","OBJECT_ID":"1998-067VJ","EPOCH":"2023-09-15T15:49:48.541440","MEAN_MOTION":15.64379218,"ECCENTRICITY":0.0008984,"INCLINATION":51.6351,"RA_OF_ASC_NODE":233.8053,"ARG_OF_PERICENTER":71.4445,"MEAN_ANOMALY":288.7526,"EPHEMERIS_TYPE":0,"CLASSIFICATION_TYPE":"U","NORAD_CAT_ID":56434,"ELEMENT_SET_NO":999,"REV_AT_EPOCH":2103,"BSTAR":0.0008375,"MEAN_MOTION_DOT":0.00082293,"MEAN_MOTION_DDOT":0}]
